sat04992
1 04992U 70025HN  20046.81062125  .00000069  00000-0  15426-3 0  9991
2 04992  99.9528 159.9871 0014291   6.0602 159.6332 13.60089809468617
